NORAD_CAT_ID,OBJECT_NAME,OBJECT_TYPE,EPOCH,MEAN_MOTION,ECCENTRICITY,INCLINATION,RA_OF_ASC_NODE,ARG_OF_PERICENTER,MEAN_ANOMALY,BSTAR,MEAN_MOTION_DOT,MEAN_MOTION_DDOT,TLE_LINE0,TLE_LINE1,TLE_LINE2,SEMIMAJOR_AXIS,PERIOD,APOGEE,PERIGEE,DECAYED
49750.0,STARLINK-3236,PAYLOAD,2022-08-05 10:40:11,15.08835134,0.0001606,53.2155,280.0323,53.4965,306.6175,-4.6108e-06,-3.61e-06,0.0,0 STARLINK-3236,1 49750U 21115AC  22217.44457543 -.00000361  00000-0 -46108-5 0  9991,2 49750  53.2155 280.0323 0001606  53.4965 306.6175 15.08835134 37434,6917.895,95.438,540.871,538.649,0.0
49750.0,STARLINK-3236,PAYLOAD,2022-08-06 04:09:25,15.08843496,0.0001626999999999,53.2153,276.7612,53.3412,306.773,2.0832e-05,4.4e-07,0.0,0 STARLINK-3236,1 49750U 21115AC  22218.17320921  .00000044  00000-0  20832-4 0  9992,2 49750  53.2153 276.7612 0001627  53.3412 306.7730 15.08843496 38657,6917.87,95.437,540.86,538.609,0.0
49750.0,STARLINK-3236,PAYLOAD,2022-08-06 10:30:57,15.08844188,0.0001631999999999,53.2154,275.5719,52.3302,307.7838,1.1378e-05,-1.07e-06,0.0,0 STARLINK-3236,1 49750U 21115AC  22218.43816828 -.00000107  00000-0  11378-4 0  9993,2 49750  53.2154 275.5719 0001632  52.3302 307.7838 15.08844188 37586,6917.868,95.437,540.862,538.604,0.0
49750.0,STARLINK-3236,PAYLOAD,2022-08-06 13:41:43,15.08844321,0.0001641999999999,53.2154,274.9771,52.3988,307.7153,1.36e-05,-7.2e-07,0.0,0 STARLINK-3236,1 49750U 21115AC  22218.57064798 -.00000072  00000-0  13600-4 0  9990,2 49750  53.2154 274.9771 0001642  52.3988 307.7153 15.08844321 37600,6917.8669999999975,95.437,540.868,538.596,0.0
49750.0,STARLINK-3236,PAYLOAD,2022-08-07 04:00:12,15.08835256,0.0001564,53.2152,272.3004,52.8095,307.3040000000001,5.400399999999999e-05,5.71e-06,0.0,0 STARLINK-3236,1 49750U 21115AC  22219.16681217  .00000571  00000-0  54004-4 0  9993,2 49750  53.2152 272.3004 0001564  52.8095 307.3040 15.08835256 38807,6917.895,95.438,540.842,538.678,0.0
49750.0,STARLINK-3236,PAYLOAD,2022-08-07 11:57:08,15.088318,0.00016,53.2153,270.8143,48.5182,311.5947,-8.5517e-06,-4.24e-06,0.0,0 STARLINK-3236,1 49750U 21115AC  22219.49801813 -.00000424  00000-0 -85517-5 0  9998,2 49750  53.2153 270.8143 0001600  48.5182 311.5947 15.08831800 37741,6917.905,95.438,540.877,538.664,0.0
49750.0,STARLINK-3236,PAYLOAD,2022-08-07 19:54:04,15.08834661,0.0001613,53.2153,269.3275,48.6772,311.4359,1.475e-05,-5.3e-07,0.0,0 STARLINK-3236,1 49750U 21115AC  22219.82921698 -.00000053  00000-0  14750-4 0  9996,2 49750  53.2153 269.3275 0001613  48.6772 311.4359 15.08834661 37799,6917.897,95.438,540.878,538.646,0.0
49750.0,STARLINK-3236,PAYLOAD,2022-08-08 11:47:55,15.08844389,0.0001621,53.2154,266.3535,47.8282,312.2848,5.204100000000001e-05,5.400000000000002e-06,0.0,0 STARLINK-3236,1 49750U 21115AC  22220.49161119  .00000540  00000-0  52041-4 0  9990,2 49750  53.2154 266.3535 0001621  47.8282 312.2848 15.08844389 39008,6917.8669999999975,95.437,540.8530000000002,538.611,0.0
49750.0,STARLINK-3236,PAYLOAD,2022-08-08 13:23:18,15.08844747,0.000162,53.2153,266.0562,47.5103,312.6026,5.5547e-05,5.96e-06,0.0,0 STARLINK-3236,1 49750U 21115AC  22220.55785080  .00000596  00000-0  55547-4 0  9991,2 49750  53.2153 266.0562 0001620  47.5103 312.6026 15.08844747 37909,6917.866,95.437,540.852,538.61,0.0
49750.0,STARLINK-3236,PAYLOAD,2022-08-08 19:44:50,15.08846302,0.0001612,53.2153,264.8667,47.0819,313.0309,9.146e-05,1.168e-05,0.0,0 STARLINK-3236,1 49750U 21115AC  22220.82280806  .00001168  00000-0  91460-4 0  9997,2 49750  53.2153 264.8667 0001612  47.0819 313.0309 15.08846302 37943,6917.861,95.437,540.841,538.611,0.0
49750.0,STARLINK-3236,PAYLOAD,2022-08-09 10:03:19,15.08832569,0.0001546,53.2156,262.1898,41.371,318.7399,6.5705e-05,7.58e-06,0.0,0 STARLINK-3236,1 49750U 21115AC  22221.41897749  .00000758  00000-0  65705-4 0  9990,2 49750  53.2156 262.1898 0001546  41.3710 318.7399 15.08832569 38038,6917.903,95.438,540.8380000000002,538.6990000000002,0.0
49750.0,STARLINK-3236,PAYLOAD,2022-08-10 03:32:34,15.08832212,0.0001544,53.2161,258.9184,45.7143,314.3976,-1.4507e-05,-5.19e-06,0.0,0 STARLINK-3236,1 49750U 21115AC  22222.14762283 -.00000519  00000-0 -14507-4 0  9996,2 49750  53.2161 258.9184 0001544  45.7143 314.3976 15.08832212 38141,6917.904,95.438,540.837,538.701,0.0
49750.0,STARLINK-3236,PAYLOAD,2022-08-11 03:23:22,15.08822565,0.0001695,53.2102,254.4544,16.2757,343.829,-2.353e-05,-6.62e-06,0.0,0 STARLINK-3236,1 49750U 21115AC  22223.14123433 -.00000662  00000-0 -23530-4 0  9990,2 49750  53.2102 254.4544 0001695  16.2757 343.8290 15.08822565 39404,6917.934,95.439,540.971,538.626,0.0
49750.0,STARLINK-3236,PAYLOAD,2022-08-11 08:09:31,15.08826509,0.0001553,53.2126,253.5637,18.3561,341.7487,-1.0707e-06,-3.05e-06,0.0,0 STARLINK-3236,1 49750U 21115AC  22223.33995293 -.00000305  00000-0 -10707-5 0  9999,2 49750  53.2126 253.5637 0001553  18.3561 341.7487 15.08826509 38329,6917.922,95.438,540.861,538.712,0.0
49750.0,STARLINK-3236,PAYLOAD,2022-08-12 11:11:04,15.08836425,0.0001636,53.2123,248.5081,47.0926,313.0203,0.00019286,2.782e-05,0.0,0 STARLINK-3236,1 49750U 21115AC  22224.46602789  .00002782  00000-0  19286-3 0  9997,2 49750  53.2123 248.5081 0001636  47.0926 313.0203 15.08836425 38493,6917.891,95.438,540.888,538.625,0.0
49750.0,STARLINK-3236,PAYLOAD,2022-08-12 19:08:00,15.08844904,0.000179,53.2135,247.0245,48.2209,311.8936,0.00019812,2.867e-05,0.0,0 STARLINK-3236,1 49750U 21115AC  22224.79722455  .00002867  00000-0  19812-3 0  9995,2 49750  53.2135 247.0245 0001790  48.2209 311.8936 15.08844904 38546,6917.865,95.437,540.969,538.492,0.0
49750.0,STARLINK-3236,PAYLOAD,2022-08-13 01:29:32,15.08847317,0.000176,53.2139,245.8345,47.3139,312.8001,0.00021404,3.121e-05,0.0,0 STARLINK-3236,1 49750U 21115AC  22225.06218224  .00003121  00000-0  21404-3 0  9994,2 49750  53.2139 245.8345 0001760  47.3139 312.8001 15.08847317 39698,6917.858,95.437,540.941,538.505,0.0
49750.0,STARLINK-3236,PAYLOAD,2022-08-13 11:01:51,15.08855797,0.0001794,53.2139,244.0503,37.8261,322.2857,0.0002762,4.112e-05,0.0,0 STARLINK-3236,1 49750U 21115AC  22225.45962183  .00004112  00000-0  27620-3 0  9994,2 49750  53.2139 244.0503 0001794  37.8261 322.2857 15.08855797 38641,6917.831999999999,95.437,540.938,538.456,0.0
49750.0,STARLINK-3236,PAYLOAD,2022-08-14 01:20:19,15.08842225,0.0001799,53.2136,241.3737,51.7724,308.343,-5.5106e-05,-1.165e-05,0.0,0 STARLINK-3236,1 49750U 21115AC  22226.05578694 -.00001165  00000-0 -55106-4 0  9999,2 49750  53.2136 241.3737 0001799  51.7724 308.3430 15.08842225 39848,6917.874,95.437,540.9830000000002,538.494,0.0
49750.0,STARLINK-3236,PAYLOAD,2022-08-14 10:52:38,15.08846737,0.0001789,53.2149,239.5895,47.5444,312.5699,2.0328e-05,3.5e-07,0.0,0 STARLINK-3236,1 49750U 21115AC  22226.45322517  .00000035  00000-0  20328-4 0  9995,2 49750  53.2149 239.5895 0001789  47.5444 312.5699 15.08846737 38796,6917.86,95.437,540.962,538.487,0.0
49750.0,STARLINK-3236,PAYLOAD,2022-08-15 01:11:06,15.08849777,0.0001791,53.2154,236.9131,50.4942,309.6208,2.9766e-05,1.86e-06,0.0,0 STARLINK-3236,1 49750U 21115AC  22227.04937975  .00000186  00000-0  29766-4 0  9993,2 49750  53.2154 236.9131 0001791  50.4942 309.6208 15.08849777 39998,6917.851,95.437,540.9540000000002,538.477,0.0
49750.0,STARLINK-3236,PAYLOAD,2022-08-15 10:43:25,15.08839202,0.0001955,53.2151,235.1291,51.152,308.9646,-5.7953e-05,-1.21e-05,0.0,0 STARLINK-3236,1 49750U 21115AC  22227.44682829 -.00001210  00000-0 -57953-4 0  9992,2 49750  53.2151 235.1291 0001955  51.1520 308.9646 15.08839202 40054,6917.8830000000025,95.438,541.1,538.395,0.0
49750.0,STARLINK-3236,PAYLOAD,2022-08-15 17:04:58,15.08837344,0.0002032,53.215,233.9396,50.8024,309.3148,-9.0609e-05,-1.73e-05,0.0,0 STARLINK-3236,1 49750U 21115AC  22227.71178845 -.00001730  00000-0 -90609-4 0  9992,2 49750  53.2150 233.9396 0002032  50.8024 309.3148 15.08837344 38983,6917.889,95.438,541.159,538.3480000000002,0.0
49750.0,STARLINK-3236,PAYLOAD,2022-08-16 10:34:13,15.08835152,0.0001961,53.2147,230.6685,49.6918,310.4246,3.0683000000000004e-05,2e-06,0.0,0 STARLINK-3236,1 49750U 21115AC  22228.44043092  .00000200  00000-0  30683-4 0  9993,2 49750  53.2147 230.6685 0001961  49.6918 310.4246 15.08835152 39092,6917.895,95.438,541.117,538.404,0.0
49750.0,STARLINK-3236,PAYLOAD,2022-08-16 16:55:45,15.08836814,0.0001925,53.2149,229.479,50.2615,309.8547,4.129600000000001e-05,3.69e-06,0.0,0 STARLINK-3236,1 49750U 21115AC  22228.70539275  .00000369  00000-0  41296-4 0  9993,2 49750  53.2149 229.4790 0001925  50.2615 309.8547 15.08836814 39136,6917.89,95.438,541.087,538.423,0.0
49750.0,STARLINK-3236,PAYLOAD,2022-08-17 05:38:52,15.0880367,0.0002245,53.2149,227.1,59.0368,301.0845,0.00064022,9.906e-05,0.0,0 STARLINK-3236,1 49750U 21115AC  22229.23532494  .00009906  00000-0  64022-3 0  9995,2 49750  53.2149 227.1000 0002245  59.0368 301.0845 15.08803670 40325,6917.991,95.44,541.41,538.303,0.0
49750.0,STARLINK-3236,PAYLOAD,2022-08-17 08:49:42,15.08680904,0.0003013999999999,53.2149,226.5057,50.9598,309.1662,0.0026053,0.0004123999999999,0.0,0 STARLINK-3236,1 49750U 21115AC  22229.36785661  .00041240  00000-0  26053-2 0  9993,2 49750  53.2149 226.5057 0003014  50.9598 309.1662 15.08680904 40341,6918.3669999999975,95.448,542.317,538.1469999999998,0.0
49750.0,STARLINK-3236,PAYLOAD,2022-08-17 13:35:46,15.08833896,0.0001923,53.215,225.613,55.9907,304.1268,0.0002248,3.291e-05,0.0,0 STARLINK-3236,1 49750U 21115AC  22229.56651513  .00003291  00000-0  22480-3 0  9998,2 49750  53.2150 225.6130 0001923  55.9907 304.1268 15.08833896 39267,6917.899,95.438,541.094,538.434,0.0
49750.0,STARLINK-3236,PAYLOAD,2022-08-18 08:40:24,15.08846858,0.0002058,53.2143,222.0442,53.9895,306.1287,0.00026393,3.916e-05,0.0,0 STARLINK-3236,1 49750U 21115AC  22230.36139108  .00003916  00000-0  26393-3 0  9990,2 49750  53.2143 222.0442 0002058  53.9895 306.1287 15.08846858 39388,6917.859,95.437,541.148,538.3009999999998,0.0
